{
    "links": {
        "self": "http://www.neowsapp.com/rest/v1/neo/3989650?api_key=iIulBulltgU6a56xZRHN4H3l9WmuAYTsLGpBGhQ2"
    },
    "id": "3989650",
    "neo_reference_id": "3989650",
    "name": "(2020 CF1)",
    "designation": "2020 CF1",
    "nasa_jpl_url": "http://ssd.jpl.nasa.gov/sbdb.cgi?sstr=3989650",
    "absolute_magnitude_h": 23.797,
    "estimated_diameter": {
        "kilometers": {
            "estimated_diameter_min": 0.046254605,
            "estimated_diameter_max": 0.1034284411
        },
        "meters": {
            "estimated_diameter_min": 46.2546050042,
            "estimated_diameter_max": 103.4284410617
        },
        "miles": {
            "estimated_diameter_min": 0.0287412702,
            "estimated_diameter_max": 0.0642674339
        },
        "feet": {
            "estimated_diameter_min": 151.7539582819,
            "estimated_diameter_max": 339.3321665729
        }
    },
    "is_potentially_hazardous_asteroid": false,
    "close_approach_data": [
        {
            "close_approach_date": "2020-01-29",
            "close_approach_date_full": "2020-Jan-29 05:48",
            "epoch_date_close_approach": 1580276880000,
            "relative_velocity": {
                "kilometers_per_second": "23.9102469093",
                "kilometers_per_hour": "86076.8888734048",
                "miles_per_hour": "53484.8313113664"
            },
            "miss_distance": {
                "astronomical": "0.1580639624",
                "lunar": "61.4868813736",
                "kilometers": "23646032.098800088",
                "miles": "14692963.0244456944"
            },
            "orbiting_body": "Earth"
        }
    ],
    "orbital_data": {
        "orbit_id": "2",
        "orbit_determination_date": "2020-02-05 05:25:00",
        "first_observation_date": "2020-01-22",
        "last_observation_date": "2020-02-05",
        "data_arc_in_days": 14,
        "observations_used": 22,
        "orbit_uncertainty": "8",
        "minimum_orbit_intersection": ".121794",
        "jupiter_tisserand_invariant": "4.157",
        "epoch_osculation": "2458878.5",
        "eccentricity": ".3371138725625142",
        "semi_major_axis": "1.511154158261321",
        "inclination": "45.32424473654259",
        "ascending_node_longitude": "132.9999099500982",
        "orbital_period": "678.5183271382843",
        "perihelion_distance": "1.001723127930901",
        "perihelion_argument": "307.0524853443068",
        "aphelion_distance": "2.020585188591742",
        "perihelion_time": "2458827.090129491511",
        "mean_anomaly": "27.27642370562547",
        "mean_motion": ".5305678352393726",
        "equinox": "J2000",
        "orbit_class": {
            "orbit_class_type": "APO",
            "orbit_class_description": "Near-Earth asteroid orbits which cross the Earth’s orbit similar to that of 1862 Apollo",
            "orbit_class_range": "a (semi-major axis) > 1.0 AU; q (perihelion) < 1.017 AU"
        }
    },
    "is_sentry_object": false
}